GLOBALSTAR M035         
1 25851U 99037A   24184.55213275 -.00000038  00000+0  96205-3 0  9994
2 25851  51.9942 114.6775 0013086 133.8224  37.0720 11.04530792 57626
GLOBALSTAR M032         
1 25852U 99037B   24184.62970347  .00000014  00000+0  25992-2 0  9990
2 25852  51.9973 323.8233 0009362 298.2764  61.7091 11.19057985 95655
GLOBALSTAR M051         
1 25853U 99037C   24184.35312194 -.00000049  00000+0  55601-3 0  9991
2 25853  51.9759 164.8170 0001658 311.5101  48.5567 11.42199832 92411
GLOBALSTAR M030         
1 25854U 99037D   24184.56930998 -.00000043  00000+0  66770-3 0  9996
2 25854  51.9903 352.6341 0004362 135.1013 225.0157 11.55096445109648
GLOBALSTAR M048         
1 25872U 99041A   24184.51032059 -.00000078  00000+0 -20826-3 0  9998
2 25872  51.9377  85.9516 0013408 302.4074 228.7008 11.33847031 85313
GLOBALSTAR M026         
1 25873U 99041B   24184.58245043 -.00000094  00000+0 -10842-2 0  9999
2 25873  51.9981 236.2507 0001066  23.9121 147.0737 11.06834193109775
GLOBALSTAR M043         
1 25874U 99041C   24184.42859906 -.00000039  00000+0  85751-3 0  9992
2 25874  51.9361 179.8501 0012065  73.0717  80.4937 11.25680200 83482
GLOBALSTAR M028         
1 25875U 99041D   24184.32198053 -.00000065  00000+0  22914-3 0  9992
2 25875  51.9602 156.2817 0063690  31.6185 328.8478 12.50558763146407
